IRIDIUM 36              
1 24967U 97056C   24247.18732340  .00001322  00000+0  43957-3 0  9990
2 24967  86.3939 293.5461 0002133  96.3628 263.7813 14.37000124410996
IRIDIUM 39              
1 25042U 97069D   24247.16063063  .00002868  00000+0  76143-3 0  9995
2 25042  86.3967 334.1862 0018360 178.0889 182.0388 14.48270505407669
IRIDIUM 38              
1 25043U 97069E   24246.82219928  .00001775  00000+0  58721-3 0  9999
2 25043  86.4020 354.0461 0001644  36.2676 323.8632 14.37474019404661
IRIDIUM 42              
1 25077U 97077A   24246.82804132  .00001688  00000+0  57758-3 0  9994
2 25077  86.4023 359.8538 0001939  74.8650 285.2761 14.35754419399958
IRIDIUM 44              
1 25078U 97077B   24247.20681442  .00001641  00000+0  51946-3 0  9997
2 25078  86.4012 342.4014 0000843 150.6839 209.4408 14.39603233402434
IRIDIUM 24              
1 25105U 97082B   24246.92058332  .00002003  00000+0  61215-3 0  9991
2 25105  86.3953 201.9726 0009740 316.4968  43.5462 14.41405396401829
